[{"OBJECT_NAME":"STARLINK-2611","OBJECT_ID":"2021-038M","EPOCH":"2026-03-09T23:19:18.936480","MEAN_MOTION":15.30184448,"ECCENTRICITY":0.00013073,"INCLINATION":53.1615,"RA_OF_ASC_NODE":346.4921,"ARG_OF_PERICENTER":103.2737,"MEAN_ANOMALY":256.841,"EPHEMERIS_TYPE":0,"CLASSIFICATION_TYPE":"U","NORAD_CAT_ID":48364,"ELEMENT_SET_NO":999,"REV_AT_EPOCH":26727,"BSTAR":9.2811812e-5,"MEAN_MOTION_DOT":2.389e-5,"MEAN_MOTION_DDOT":0},{"OBJECT_NAME":"SCS-01 M","OBJECT_ID":"2025-100M","EPOCH":"2026-03-09T23:50:15.541152","MEAN_MOTION":15.31880861,"ECCENTRICITY":0.00078021,"INCLINATION":97.3725,"RA_OF_ASC_NODE":145.6908,"ARG_OF_PERICENTER":292.3826,"MEAN_ANOMALY":67.6588,"EPHEMERIS_TYPE":0,"CLASSIFICATION_TYPE":"U","NORAD_CAT_ID":63993,"ELEMENT_SET_NO":999,"REV_AT_EPOCH":4565,"BSTAR":0.0012010051,"MEAN_MOTION_DOT":0.00037061,"MEAN_MOTION_DDOT":0}]
